start=new Date('2021-11-16T00:00:00.000Z').valueOf();
sats=[{"APOAPSIS":"357.651","ARG_OF_PERICENTER":"17.0570","RA_OF_ASC_NODE":"243.2151","MEAN_ELEMENT_THEORY":"SGP4","SITE":"AFETR","MEAN_ANOMALY":"343.0595","COUNTRY_CODE":"US","MEAN_MOTION_DDOT":"0.0000000000000","FILE":"3215681","RCS_SIZE":"LARGE","MEAN_MOTION":"15.71479309","SEMIMAJOR_AXIS":"6732.805","MEAN_MOTION_DOT":"0.00005389","PERIOD":"91.633","CLASSIFICATION_TYPE":"U","NORAD_CAT_ID":"45539","PERIAPSIS":"351.690","EPHEMERIS_TYPE":"0","OBJECT_NAME":"STARLINK-1367","REF_FRAME":"TEME","GP_ID":"189806728","INCLINATION":"53.0553","EPOCH":"2021-11-15T12:35:40.116768","OBJECT_TYPE":"PAYLOAD","BSTAR":"0.00004592400000","ELEMENT_SET_NO":"999","ECCENTRICITY":"0.00044270","DECAY_DATE":null,"REV_AT_EPOCH":"8898","CENTER_NAME":"EARTH","TLE_LINE2":"2 45539  53.0553 243.2151 0004427  17.0570 343.0595 15.71479309 88982","TLE_LINE1":"1 45539U 20025J   21319.52476987  .00005389  00000-0  45924-4 0  9992","TIME_SYSTEM":"UTC","OBJECT_ID":"2020-025J","LAUNCH_DATE":"2020-04-22"},{"RCS_SIZE":"LARGE","FILE":"3215681","MEAN_MOTION_DDOT":"0.0000000000000","COUNTRY_CODE":"US","MEAN_ANOMALY":"289.0788","SITE":"AFETR","MEAN_ELEMENT_THEORY":"SGP4","RA_OF_ASC_NODE":"337.7953","ARG_OF_PERICENTER":"71.0354","APOAPSIS":"548.162","REF_FRAME":"TEME","EPHEMERIS_TYPE":"0","OBJECT_NAME":"STARLINK-1368","PERIAPSIS":"546.208","PERIOD":"95.592","CLASSIFICATION_TYPE":"U","NORAD_CAT_ID":"45540","MEAN_MOTION_DOT":"0.00003602","SEMIMAJOR_AXIS":"6925.320","MEAN_MOTION":"15.06409235","DECAY_DATE":null,"ECCENTRICITY":"0.00014110","ELEMENT_SET_NO":"999","OBJECT_TYPE":"PAYLOAD","BSTAR":"0.00026052000000","INCLINATION":"53.0531","EPOCH":"2021-11-15T12:42:58.976064","GP_ID":"189806978","LAUNCH_DATE":"2020-04-22","TIME_SYSTEM":"UTC","OBJECT_ID":"2020-025K","TLE_LINE1":"1 45540U 20025K   21319.52984926  .00003602  00000-0  26052-3 0  9997","TLE_LINE2":"2 45540  53.0531 337.7953 0001411  71.0354 289.0788 15.06409235 87676","CENTER_NAME":"EARTH","REV_AT_EPOCH":"8767"},{"PERIOD":"95.591","NORAD_CAT_ID":"45541","CLASSIFICATION_TYPE":"U","MEAN_MOTION_DOT":"0.00003797","SEMIMAJOR_AXIS":"6925.316","MEAN_MOTION":"15.06410472","REF_FRAME":"TEME","EPHEMERIS_TYPE":"0","OBJECT_NAME":"STARLINK-1369","PERIAPSIS":"545.975","COUNTRY_CODE":"US","MEAN_ANOMALY":"287.1458","SITE":"AFETR","MEAN_ELEMENT_THEORY":"SGP4","RA_OF_ASC_NODE":"337.7727","ARG_OF_PERICENTER":"72.9722","APOAPSIS":"548.388","RCS_SIZE":"LARGE","FILE":"3215681","MEAN_MOTION_DDOT":"0.0000000000000","TLE_LINE1":"1 45541U 20025L   21319.53353352  .00003797  00000-0  27358-3 0  9997","TLE_LINE2":"2 45541  53.0537 337.7727 0001742  72.9722 287.1458 15.06410472 87676","CENTER_NAME":"EARTH","REV_AT_EPOCH":"8767","LAUNCH_DATE":"2020-04-22","TIME_SYSTEM":"UTC","OBJECT_ID":"2020-025L","GP_ID":"189807730","DECAY_DATE":null,"ECCENTRICITY":"0.00017420","ELEMENT_SET_NO":"999","OBJECT_TYPE":"PAYLOAD","BSTAR":"0.00027358000000","EPOCH":"2021-11-15T12:48:17.296128","INCLINATION":"53.0537"},{"TLE_LINE1":"1 45542U 20025M   21319.89844822 -.00000334  00000-0 -35498-5 0  9996","TLE_LINE2":"2 45542  53.0556 336.1353 0001378  75.3944 284.7198 15.06394940 87736","REV_AT_EPOCH":"8773","CENTER_NAME":"EARTH","LAUNCH_DATE":"2020-04-22","OBJECT_ID":"2020-025M","TIME_SYSTEM":"UTC","GP_ID":"189835271","ELEMENT_SET_NO":"999","DECAY_DATE":null,"ECCENTRICITY":"0.00013780","BSTAR":"-0.00000354980000","OBJECT_TYPE":"PAYLOAD","INCLINATION":"53.0556","EPOCH":"2021-11-15T21:33:45.926208","SEMIMAJOR_AXIS":"6925.364","CLASSIFICATION_TYPE":"U","PERIOD":"95.592","NORAD_CAT_ID":"45542","MEAN_MOTION_DOT":"-0.00000334","MEAN_MOTION":"15.06394940","REF_FRAME":"TEME","PERIAPSIS":"546.275","OBJECT_NAME":"STARLINK-1371","EPHEMERIS_TYPE":"0","RA_OF_ASC_NODE":"336.1353","ARG_OF_PERICENTER":"75.3944","COUNTRY_CODE":"US","SITE":"AFETR","MEAN_ANOMALY":"284.7198","MEAN_ELEMENT_THEORY":"SGP4","APOAPSIS":"548.183","RCS_SIZE":"LARGE","FILE":"3215928","MEAN_MOTION_DDOT":"0.0000000000000"},{"TLE_LINE1":"1 45543U 20025N   21319.53722318 -.00000090  00000-0  12854-4 0  9991","TLE_LINE2":"2 45543  53.0539 337.7501 0001465  65.5079 294.6063 15.06393522 86776","REV_AT_EPOCH":"8677","CENTER_NAME":"EARTH","LAUNCH_DATE":"2020-04-22","OBJECT_ID":"2020-025N","TIME_SYSTEM":"UTC","GP_ID":"189807229","ELEMENT_SET_NO":"999","DECAY_DATE":null,"ECCENTRICITY":"0.00014650","OBJECT_TYPE":"PAYLOAD","BSTAR":"0.00001285400000","INCLINATION":"53.0539","EPOCH":"2021-11-15T12:53:36.082752","SEMIMAJOR_AXIS":"6925.368","NORAD_CAT_ID":"45543","PERIOD":"95.593","CLASSIFICATION_TYPE":"U","MEAN_MOTION_DOT":"-0.00000090","MEAN_MOTION":"15.06393522","REF_FRAME":"TEME","PERIAPSIS":"546.219","OBJECT_NAME":"STARLINK-1372","EPHEMERIS_TYPE":"0","RA_OF_ASC_NODE":"337.7501","ARG_OF_PERICENTER":"65.5079","COUNTRY_CODE":"US","SITE":"AFETR","MEAN_ANOMALY":"294.6063","MEAN_ELEMENT_THEORY":"SGP4","APOAPSIS":"548.248","RCS_SIZE":"LARGE","FILE":"3215681","MEAN_MOTION_DDOT":"0.0000000000000"},{"CENTER_NAME":"EARTH","REV_AT_EPOCH":"8771","TLE_LINE1":"1 45544U 20025P   21319.75469338 -.00000044  00000-0  15926-4 0  9998","TLE_LINE2":"2 45544  53.0543 336.7862 0001582  73.8155 286.3008 15.06394495 87710","TIME_SYSTEM":"UTC","OBJECT_ID":"2020-025P","LAUNCH_DATE":"2020-04-22","GP_ID":"189836772","OBJECT_TYPE":"PAYLOAD","BSTAR":"0.00001592600000","INCLINATION":"53.0543","EPOCH":"2021-11-15T18:06:45.508032","DECAY_DATE":null,"ECCENTRICITY":"0.00015820","ELEMENT_SET_NO":"999","MEAN_MOTION":"15.06394495","CLASSIFICATION_TYPE":"U","PERIOD":"95.592","NORAD_CAT_ID":"45544","MEAN_MOTION_DOT":"-0.00000044","SEMIMAJOR_AXIS":"6925.365","OBJECT_NAME":"STARLINK-1373","EPHEMERIS_TYPE":"0","PERIAPSIS":"546.135","REF_FRAME":"TEME","APOAPSIS":"548.326","COUNTRY_CODE":"US","MEAN_ANOMALY":"286.3008","SITE":"AFETR","MEAN_ELEMENT_THEORY":"SGP4","RA_OF_ASC_NODE":"336.7862","ARG_OF_PERICENTER":"73.8155","FILE":"3215928","MEAN_MOTION_DDOT":"0.0000000000000","RCS_SIZE":"LARGE"},{"REF_FRAME":"TEME","PERIAPSIS":"545.909","OBJECT_NAME":"STARLINK-1374","EPHEMERIS_TYPE":"0","SEMIMAJOR_AXIS":"6925.389","PERIOD":"95.593","CLASSIFICATION_TYPE":"U","NORAD_CAT_ID":"45545","MEAN_MOTION_DOT":"0.00000271","MEAN_MOTION":"15.06386726","RCS_SIZE":"LARGE","FILE":"3215928","MEAN_MOTION_DDOT":"0.0000000000000","RA_OF_ASC_NODE":"336.7063","ARG_OF_PERICENTER":"58.5019","COUNTRY_CODE":"US","MEAN_ELEMENT_THEORY":"SGP4","SITE":"AFETR","MEAN_ANOMALY":"301.6160","APOAPSIS":"548.600","LAUNCH_DATE":"2020-04-22","TIME_SYSTEM":"UTC","OBJECT_ID":"2020-025Q","TLE_LINE1":"1 45545U 20025Q   21319.77314103  .00000271  00000-0  37131-4 0  9993","TLE_LINE2":"2 45545  53.0542 336.7063 0001943  58.5019 301.6160 15.06386726 87698","REV_AT_EPOCH":"8769","CENTER_NAME":"EARTH","ELEMENT_SET_NO":"999","DECAY_DATE":null,"ECCENTRICITY":"0.00019430","OBJECT_TYPE":"PAYLOAD","BSTAR":"0.00003713100000","INCLINATION":"53.0542","EPOCH":"2021-11-15T18:33:19.384992","GP_ID":"189837023"},{"TLE_LINE2":"2 45546  53.0543 336.6453 0001662  63.4901 296.6258 15.06392470 87712","TLE_LINE1":"1 45546U 20025R   21319.78419495  .00001509  00000-0  12022-3 0  9991","CENTER_NAME":"EARTH","REV_AT_EPOCH":"8771","LAUNCH_DATE":"2020-04-22","TIME_SYSTEM":"UTC","OBJECT_ID":"2020-025R","GP_ID":"189835771","ECCENTRICITY":"0.00016620","DECAY_DATE":null,"ELEMENT_SET_NO":"999","EPOCH":"2021-11-15T18:49:14.443680","INCLINATION":"53.0543","BSTAR":"0.00012022000000","OBJECT_TYPE":"PAYLOAD","MEAN_MOTION_DOT":"0.00001509","PERIOD":"95.593","NORAD_CAT_ID":"45546","CLASSIFICATION_TYPE":"U","SEMIMAJOR_AXIS":"6925.372","MEAN_MOTION":"15.06392470","REF_FRAME":"TEME","EPHEMERIS_TYPE":"0","OBJECT_NAME":"STARLINK-1375","PERIAPSIS":"546.086","MEAN_ELEMENT_THEORY":"SGP4","SITE":"AFETR","MEAN_ANOMALY":"296.6258","COUNTRY_CODE":"US","ARG_OF_PERICENTER":"63.4901","RA_OF_ASC_NODE":"336.6453","APOAPSIS":"548.388","RCS_SIZE":"LARGE","MEAN_MOTION_DDOT":"0.0000000000000","FILE":"3215928"},{"TIME_SYSTEM":"UTC","OBJECT_ID":"2020-025S","LAUNCH_DATE":"2020-04-22","CENTER_NAME":"EARTH","REV_AT_EPOCH":"8772","TLE_LINE1":"1 45547U 20025S   21319.78049843 -.00000291  00000-0 -60889-6 0  9994","TLE_LINE2":"2 45547  53.0542 336.6594 0001534  61.5608 298.5535 15.06392571 87721","BSTAR":"-0.00000060889000","OBJECT_TYPE":"PAYLOAD","EPOCH":"2021-11-15T18:43:55.064352","INCLINATION":"53.0542","DECAY_DATE":null,"ECCENTRICITY":"0.00015340","ELEMENT_SET_NO":"999","GP_ID":"189836021","EPHEMERIS_TYPE":"0","OBJECT_NAME":"STARLINK-1377","PERIAPSIS":"546.174","REF_FRAME":"TEME","MEAN_MOTION":"15.06392571","NORAD_CAT_ID":"45547","PERIOD":"95.593","CLASSIFICATION_TYPE":"U","MEAN_MOTION_DOT":"-0.00000291","SEMIMAJOR_AXIS":"6925.371","FILE":"3215928","MEAN_MOTION_DDOT":"0.0000000000000","RCS_SIZE":"LARGE","APOAPSIS":"548.299","COUNTRY_CODE":"US","MEAN_ANOMALY":"298.5535","SITE":"AFETR","MEAN_ELEMENT_THEORY":"SGP4","RA_OF_ASC_NODE":"336.6594","ARG_OF_PERICENTER":"61.5608"},{"SITE":"AFETR","MEAN_ANOMALY":"285.8339","MEAN_ELEMENT_THEORY":"SGP4","COUNTRY_CODE":"US","ARG_OF_PERICENTER":"74.2816","RA_OF_ASC_NODE":"337.7431","APOAPSIS":"548.265","RCS_SIZE":"LARGE","MEAN_MOTION_DDOT":"0.0000000000000","FILE":"3215730","MEAN_MOTION_DOT":"-0.00000694","PERIOD":"95.592","NORAD_CAT_ID":"45548","CLASSIFICATION_TYPE":"U","SEMIMAJOR_AXIS":"6925.359","MEAN_MOTION":"15.06396451","REF_FRAME":"TEME","EPHEMERIS_TYPE":"0","OBJECT_NAME":"STARLINK-1378","PERIAPSIS":"546.184","GP_ID":"189812144","ECCENTRICITY":"0.00015030","DECAY_DATE":null,"ELEMENT_SET_NO":"999","EPOCH":"2021-11-15T12:58:54.205824","INCLINATION":"53.0555","BSTAR":"-0.00002769000000","OBJECT_TYPE":"PAYLOAD","TLE_LINE2":"2 45548  53.0555 337.7431 0001503  74.2816 285.8339 15.06396451 87098","TLE_LINE1":"1 45548U 20025T   21319.54090516 -.00000694  00000-0 -27690-4 0  9990","CENTER_NAME":"EARTH","REV_AT_EPOCH":"8709","LAUNCH_DATE":"2020-04-22","OBJECT_ID":"2020-025T","TIME_SYSTEM":"UTC"}];
